[{"OBJECT_NAME":"BUGSAT-1 (TITA)","OBJECT_ID":"2014-033E","EPOCH":"2026-03-09T23:14:58.322976","MEAN_MOTION":15.14502987,"ECCENTRICITY":0.00292569,"INCLINATION":98.0428,"RA_OF_ASC_NODE":155.8085,"ARG_OF_PERICENTER":157.4521,"MEAN_ANOMALY":202.8002,"EPHEMERIS_TYPE":0,"CLASSIFICATION_TYPE":"U","NORAD_CAT_ID":40014,"ELEMENT_SET_NO":999,"REV_AT_EPOCH":64081,"BSTAR":0.00030961592,"MEAN_MOTION_DOT":5.686e-5,"MEAN_MOTION_DDOT":0},{"OBJECT_NAME":"STARLINK-5531","OBJECT_ID":"2023-013BE","EPOCH":"2026-03-09T22:00:01.999584","MEAN_MOTION":15.06159419,"ECCENTRICITY":9.438e-5,"INCLINATION":43.0003,"RA_OF_ASC_NODE":285.7881,"ARG_OF_PERICENTER":293.9763,"MEAN_ANOMALY":188.4027,"EPHEMERIS_TYPE":0,"CLASSIFICATION_TYPE":"U","NORAD_CAT_ID":55383,"ELEMENT_SET_NO":999,"REV_AT_EPOCH":573,"BSTAR":0.0029014075,"MEAN_MOTION_DOT":0.00043241,"MEAN_MOTION_DDOT":0}]
